ONEWEB-0684             
1 56720U 23068L   26140.60662104 -.00000252  00000+0 -70465-3 0  9992
2 56720  87.9002 264.6786 0000872  59.2346 300.8870 13.15548092145625
ONEWEB-0686             
1 56721U 23068M   26141.22517087  .00000095  00000+0  21566-3 0  9992
2 56721  87.9096 234.1484 0001769 109.3966 250.7357 13.16596934148161
ONEWEB-0694             
1 56722U 23068N   26141.23150254  .00000059  00000+0  12035-3 0  9994
2 56722  87.9117 234.1064 0002222 112.9993 247.1373 13.16592331148227
ONEWEB-0696             
1 56723U 23068P   26141.24835580  .00000248  00000+0  62533-3 0  9996
2 56723  87.8987 264.5908 0001613  87.7047 272.4268 13.15550044145829
ONEWEB-0703             
1 56724U 23068Q   26141.25787246  .00000197  00000+0  48802-3 0  9999
2 56724  87.8991 264.5702 0002020  74.6369 285.4985 13.15546816145712
ONEWEB-0721             
1 56725U 23068R   26141.20521271  .00000093  00000+0  18939-3 0  9992
2 56725  86.6751  94.1271 0001992  81.1461 278.9898 13.22467339154377
ONEWEB-0015             
1 61594U 24188A   26141.22410811  .00000153  00000+0  39626-3 0  9998
2 61594  87.8909  26.4575 0002371  87.3644 272.7755 13.11414026 80929
ONEWEB-0687             
1 61595U 24188B   26141.19751165  .00000009  00000+0 -10193-4 0  9995
2 61595  87.9151  11.2451 0002064  97.8544 262.2822 13.17650869 82349
ONEWEB-0688             
1 61596U 24188C   26141.15025857  .00000056  00000+0  11183-3 0  9994
2 61596  87.9151  11.2539 0003079  91.0908 269.0576 13.17650080 82339
ONEWEB-0689             
1 61597U 24188D   26141.18172090 -.00000213  00000+0 -63627-3 0  9997
2 61597  87.8933  26.4194 0001707  91.2304 268.9020 13.11418306 80911
ONEWEB-0690             
1 61598U 24188E   26141.19191064  .00000120  00000+0  30179-3 0  9992
2 61598  87.8922  26.4312 0002049  63.1013 297.0324 13.11420053 81099
ONEWEB-0691             
1 61599U 24188F   26141.18679948  .00000052  00000+0  11086-3 0  9994
2 61599  87.8931  26.3383 0002177  87.8129 272.3248 13.11421213 80943
ONEWEB-0692             
1 61600U 24188G   26141.20716265  .00000609  00000+0  16817-2 0  9998
2 61600  87.8910  26.4526 0001030  86.4484 273.6762 13.11416458 80938
ONEWEB-0693             
1 61601U 24188H   26141.16207421  .00000040  00000+0  70194-4 0  9992
2 61601  87.9146  11.2727 0002276  64.7387 295.3980 13.17650098 82324
ONEWEB-0695             
1 61602U 24188J   26141.18340120 -.00000358  00000+0 -10455-2 0  9995
2 61602  87.8913  26.4492 0001414  93.5565 266.5725 13.11418329 80928
ONEWEB-0697             
1 61603U 24188K   26141.21563732  .00000499  00000+0  13735-2 0  9994
2 61603  87.8909  26.4329 0001043  80.5418 279.5828 13.11415174 80916
ONEWEB-0698             
1 61604U 24188L   26141.19359186  .00000339  00000+0  91957-3 0  9994
2 61604  87.8908  26.4517 0001386  41.5050 318.6183 13.11418620 80934
