[{"OBJECT_NAME":"ONEWEB-0684","OBJECT_ID":"2023-068L","EPOCH":"2026-05-20T14:33:32.057856","MEAN_MOTION":13.15548092,"ECCENTRICITY":8.72e-05,"INCLINATION":87.9002,"RA_OF_ASC_NODE":264.6786,"ARG_OF_PERICENTER":59.2346,"MEAN_ANOMALY":300.887,"EPHEMERIS_TYPE":0,"CLASSIFICATION_TYPE":"U","NORAD_CAT_ID":56720,"ELEMENT_SET_NO":999,"REV_AT_EPOCH":14562,"BSTAR":-0.00070465,"MEAN_MOTION_DOT":-2.52e-06,"MEAN_MOTION_DDOT":0.0},{"OBJECT_NAME":"ONEWEB-0686","OBJECT_ID":"2023-068M","EPOCH":"2026-05-21T05:24:14.763168","MEAN_MOTION":13.16596934,"ECCENTRICITY":0.0001769,"INCLINATION":87.9096,"RA_OF_ASC_NODE":234.1484,"ARG_OF_PERICENTER":109.3966,"MEAN_ANOMALY":250.7357,"EPHEMERIS_TYPE":0,"CLASSIFICATION_TYPE":"U","NORAD_CAT_ID":56721,"ELEMENT_SET_NO":999,"REV_AT_EPOCH":14816,"BSTAR":0.00021566,"MEAN_MOTION_DOT":9.5e-07,"MEAN_MOTION_DDOT":0.0},{"OBJECT_NAME":"ONEWEB-0694","OBJECT_ID":"2023-068N","EPOCH":"2026-05-21T05:33:21.819456","MEAN_MOTION":13.16592331,"ECCENTRICITY":0.0002222,"INCLINATION":87.9117,"RA_OF_ASC_NODE":234.1064,"ARG_OF_PERICENTER":112.9993,"MEAN_ANOMALY":247.1373,"EPHEMERIS_TYPE":0,"CLASSIFICATION_TYPE":"U","NORAD_CAT_ID":56722,"ELEMENT_SET_NO":999,"REV_AT_EPOCH":14822,"BSTAR":0.00012035,"MEAN_MOTION_DOT":5.9e-07,"MEAN_MOTION_DDOT":0.0},{"OBJECT_NAME":"ONEWEB-0696","OBJECT_ID":"2023-068P","EPOCH":"2026-05-21T05:57:37.941120","MEAN_MOTION":13.15550044,"ECCENTRICITY":0.0001613,"INCLINATION":87.8987,"RA_OF_ASC_NODE":264.5908,"ARG_OF_PERICENTER":87.7047,"MEAN_ANOMALY":272.4268,"EPHEMERIS_TYPE":0,"CLASSIFICATION_TYPE":"U","NORAD_CAT_ID":56723,"ELEMENT_SET_NO":999,"REV_AT_EPOCH":14582,"BSTAR":0.0006253300000000001,"MEAN_MOTION_DOT":2.48e-06,"MEAN_MOTION_DDOT":0.0},{"OBJECT_NAME":"ONEWEB-0703","OBJECT_ID":"2023-068Q","EPOCH":"2026-05-21T06:11:20.180544","MEAN_MOTION":13.15546816,"ECCENTRICITY":0.000202,"INCLINATION":87.8991,"RA_OF_ASC_NODE":264.5702,"ARG_OF_PERICENTER":74.6369,"MEAN_ANOMALY":285.4985,"EPHEMERIS_TYPE":0,"CLASSIFICATION_TYPE":"U","NORAD_CAT_ID":56724,"ELEMENT_SET_NO":999,"REV_AT_EPOCH":14571,"BSTAR":0.00048802000000000003,"MEAN_MOTION_DOT":1.97e-06,"MEAN_MOTION_DDOT":0.0},{"OBJECT_NAME":"ONEWEB-0721","OBJECT_ID":"2023-068R","EPOCH":"2026-05-21T04:55:30.378144","MEAN_MOTION":13.22467339,"ECCENTRICITY":0.0001992,"INCLINATION":86.6751,"RA_OF_ASC_NODE":94.1271,"ARG_OF_PERICENTER":81.1461,"MEAN_ANOMALY":278.9898,"EPHEMERIS_TYPE":0,"CLASSIFICATION_TYPE":"U","NORAD_CAT_ID":56725,"ELEMENT_SET_NO":999,"REV_AT_EPOCH":15437,"BSTAR":0.00018939,"MEAN_MOTION_DOT":9.3e-07,"MEAN_MOTION_DDOT":0.0},{"OBJECT_NAME":"ONEWEB-0015","OBJECT_ID":"2024-188A","EPOCH":"2026-05-21T05:22:42.940704","MEAN_MOTION":13.11414026,"ECCENTRICITY":0.0002371,"INCLINATION":87.8909,"RA_OF_ASC_NODE":26.4575,"ARG_OF_PERICENTER":87.3644,"MEAN_ANOMALY":272.7755,"EPHEMERIS_TYPE":0,"CLASSIFICATION_TYPE":"U","NORAD_CAT_ID":61594,"ELEMENT_SET_NO":999,"REV_AT_EPOCH":8092,"BSTAR":0.00039626,"MEAN_MOTION_DOT":1.53e-06,"MEAN_MOTION_DDOT":0.0},{"OBJECT_NAME":"ONEWEB-0687","OBJECT_ID":"2024-188B","EPOCH":"2026-05-21T04:44:25.006560","MEAN_MOTION":13.17650869,"ECCENTRICITY":0.0002064,"INCLINATION":87.9151,"RA_OF_ASC_NODE":11.2451,"ARG_OF_PERICENTER":97.8544,"MEAN_ANOMALY":262.2822,"EPHEMERIS_TYPE":0,"CLASSIFICATION_TYPE":"U","NORAD_CAT_ID":61595,"ELEMENT_SET_NO":999,"REV_AT_EPOCH":8234,"BSTAR":-1.0193e-05,"MEAN_MOTION_DOT":9e-08,"MEAN_MOTION_DDOT":0.0},{"OBJECT_NAME":"ONEWEB-0688","OBJECT_ID":"2024-188C","EPOCH":"2026-05-21T03:36:22.340448","MEAN_MOTION":13.1765008,"ECCENTRICITY":0.0003079,"INCLINATION":87.9151,"RA_OF_ASC_NODE":11.2539,"ARG_OF_PERICENTER":91.0908,"MEAN_ANOMALY":269.0576,"EPHEMERIS_TYPE":0,"CLASSIFICATION_TYPE":"U","NORAD_CAT_ID":61596,"ELEMENT_SET_NO":999,"REV_AT_EPOCH":8233,"BSTAR":0.00011183,"MEAN_MOTION_DOT":5.6e-07,"MEAN_MOTION_DDOT":0.0},{"OBJECT_NAME":"ONEWEB-0689","OBJECT_ID":"2024-188D","EPOCH":"2026-05-21T04:21:40.685760","MEAN_MOTION":13.11418306,"ECCENTRICITY":0.0001707,"INCLINATION":87.8933,"RA_OF_ASC_NODE":26.4194,"ARG_OF_PERICENTER":91.2304,"MEAN_ANOMALY":268.902,"EPHEMERIS_TYPE":0,"CLASSIFICATION_TYPE":"U","NORAD_CAT_ID":61597,"ELEMENT_SET_NO":999,"REV_AT_EPOCH":8091,"BSTAR":-0.00063627,"MEAN_MOTION_DOT":-2.13e-06,"MEAN_MOTION_DDOT":0.0},{"OBJECT_NAME":"ONEWEB-0690","OBJECT_ID":"2024-188E","EPOCH":"2026-05-21T04:36:21.079296","MEAN_MOTION":13.11420053,"ECCENTRICITY":0.0002049,"INCLINATION":87.8922,"RA_OF_ASC_NODE":26.4312,"ARG_OF_PERICENTER":63.1013,"MEAN_ANOMALY":297.0324,"EPHEMERIS_TYPE":0,"CLASSIFICATION_TYPE":"U","NORAD_CAT_ID":61598,"ELEMENT_SET_NO":999,"REV_AT_EPOCH":8109,"BSTAR":0.00030179,"MEAN_MOTION_DOT":1.2e-06,"MEAN_MOTION_DDOT":0.0},{"OBJECT_NAME":"ONEWEB-0691","OBJECT_ID":"2024-188F","EPOCH":"2026-05-21T04:28:59.475072","MEAN_MOTION":13.11421213,"ECCENTRICITY":0.0002177,"INCLINATION":87.8931,"RA_OF_ASC_NODE":26.3383,"ARG_OF_PERICENTER":87.8129,"MEAN_ANOMALY":272.3248,"EPHEMERIS_TYPE":0,"CLASSIFICATION_TYPE":"U","NORAD_CAT_ID":61599,"ELEMENT_SET_NO":999,"REV_AT_EPOCH":8094,"BSTAR":0.00011086,"MEAN_MOTION_DOT":5.2e-07,"MEAN_MOTION_DDOT":0.0},{"OBJECT_NAME":"ONEWEB-0692","OBJECT_ID":"2024-188G","EPOCH":"2026-05-21T04:58:18.852960","MEAN_MOTION":13.11416458,"ECCENTRICITY":0.000103,"INCLINATION":87.891,"RA_OF_ASC_NODE":26.4526,"ARG_OF_PERICENTER":86.4484,"MEAN_ANOMALY":273.6762,"EPHEMERIS_TYPE":0,"CLASSIFICATION_TYPE":"U","NORAD_CAT_ID":61600,"ELEMENT_SET_NO":999,"REV_AT_EPOCH":8093,"BSTAR":0.0016817,"MEAN_MOTION_DOT":6.09e-06,"MEAN_MOTION_DDOT":0.0},{"OBJECT_NAME":"ONEWEB-0693","OBJECT_ID":"2024-188H","EPOCH":"2026-05-21T03:53:23.211744","MEAN_MOTION":13.17650098,"ECCENTRICITY":0.0002276,"INCLINATION":87.9146,"RA_OF_ASC_NODE":11.2727,"ARG_OF_PERICENTER":64.7387,"MEAN_ANOMALY":295.398,"EPHEMERIS_TYPE":0,"CLASSIFICATION_TYPE":"U","NORAD_CAT_ID":61601,"ELEMENT_SET_NO":999,"REV_AT_EPOCH":8232,"BSTAR":7.0194e-05,"MEAN_MOTION_DOT":4e-07,"MEAN_MOTION_DDOT":0.0},{"OBJECT_NAME":"ONEWEB-0695","OBJECT_ID":"2024-188J","EPOCH":"2026-05-21T04:24:05.863680","MEAN_MOTION":13.11418329,"ECCENTRICITY":0.0001414,"INCLINATION":87.8913,"RA_OF_ASC_NODE":26.4492,"ARG_OF_PERICENTER":93.5565,"MEAN_ANOMALY":266.5725,"EPHEMERIS_TYPE":0,"CLASSIFICATION_TYPE":"U","NORAD_CAT_ID":61602,"ELEMENT_SET_NO":999,"REV_AT_EPOCH":8092,"BSTAR":-0.0010455,"MEAN_MOTION_DOT":-3.58e-06,"MEAN_MOTION_DDOT":0.0},{"OBJECT_NAME":"ONEWEB-0697","OBJECT_ID":"2024-188K","EPOCH":"2026-05-21T05:10:31.064448","MEAN_MOTION":13.11415174,"ECCENTRICITY":0.0001043,"INCLINATION":87.8909,"RA_OF_ASC_NODE":26.4329,"ARG_OF_PERICENTER":80.5418,"MEAN_ANOMALY":279.5828,"EPHEMERIS_TYPE":0,"CLASSIFICATION_TYPE":"U","NORAD_CAT_ID":61603,"ELEMENT_SET_NO":999,"REV_AT_EPOCH":8091,"BSTAR":0.0013735,"MEAN_MOTION_DOT":4.99e-06,"MEAN_MOTION_DDOT":0.0},{"OBJECT_NAME":"ONEWEB-0698","OBJECT_ID":"2024-188L","EPOCH":"2026-05-21T04:38:46.336704","MEAN_MOTION":13.1141862,"ECCENTRICITY":0.0001386,"INCLINATION":87.8908,"RA_OF_ASC_NODE":26.4517,"ARG_OF_PERICENTER":41.505,"MEAN_ANOMALY":318.6183,"EPHEMERIS_TYPE":0,"CLASSIFICATION_TYPE":"U","NORAD_CAT_ID":61604,"ELEMENT_SET_NO":999,"REV_AT_EPOCH":8093,"BSTAR":0.00091957,"MEAN_MOTION_DOT":3.39e-06,"MEAN_MOTION_DDOT":0.0}]